{
  "norad_id": 59435,
  "name": "STARLINK-31696",
  "history": [
    {
      "epoch": "2026-03-28T18:41:50.774496Z",
      "apogee_km": 475.757224613938,
      "perigee_km": 474.64616134503194,
      "latitude_deg": 7.421599597420881e-05,
      "longitude_deg": 86.2385825472604,
      "height_km": 475.9297933955535,
      "semi_major_axis_km": 6853.338692979484,
      "eccentricity": 8.106e-05,
      "inclination_deg": 53.1603,
      "raan_deg": 192.8947,
      "arg_perigee_deg": 72.1085,
      "mean_anomaly_deg": 288.0005,
      "mean_motion_rev_day": 15.3020448
    }
  ]
}